{
  "type": "FeatureCollection",
  "features": [
    {
      "type": "Feature",
      "properties": {
        "norad_id": 66954,
        "name": "HULIANWANG DIGUI-115",
        "group": "last-30-days",
        "lat": -33.37447809539893,
        "lon": 166.92421071221148,
        "alt_km": 1004.0825864576818,
        "timestamp": "2025-12-16T23:36:34.926066+00:00",
        "meta_object_name": "HULIANWANG DIGUI-115",
        "meta_object_id": "2025-287B",
        "meta_epoch": "2025-12-15T06:13:08.738688",
        "meta_mean_motion": 13.6879189,
        "meta_eccentricity": 0.0008784,
        "meta_inclination": 86.4971,
        "meta_ra_of_asc_node": 345.2403,
        "meta_arg_of_pericenter": 196.1208,
        "meta_mean_anomaly": 163.9673,
        "meta_ephemeris_type": 0,
        "meta_classification_type": "U",
        "meta_norad_cat_id": 66954,
        "meta_element_set_no": 999,
        "meta_rev_at_epoch": 87,
        "meta_bstar": 2.6102444e-05,
        "meta_mean_motion_dot": 3.9e-07,
        "meta_mean_motion_ddot": 0,
        "tle_line1": "1 66954U 25287B   25349.25912892  .00000039  00000+0  26102-4 0  9991",
        "tle_line2": "2 66954  86.4971 345.2403 0008784 196.1208 163.9673 13.68791890   874"
      },
      "geometry": {
        "type": "Point",
        "coordinates": [
          166.92421071221148,
          -33.37447809539893
        ]
      }
    },
    {
      "type": "Feature",
      "properties": {
        "norad_id": 66955,
        "name": "HULIANWANG DIGUI-116",
        "group": "last-30-days",
        "lat": -36.60858312702406,
        "lon": 167.21339197391478,
        "alt_km": 1004.7654623795042,
        "timestamp": "2025-12-16T23:36:34.926077+00:00",
        "meta_object_name": "HULIANWANG DIGUI-116",
        "meta_object_id": "2025-287C",
        "meta_epoch": "2025-12-14T02:08:18.133728",
        "meta_mean_motion": 13.68903211,
        "meta_eccentricity": 0.00080818,
        "meta_inclination": 86.4907,
        "meta_ra_of_asc_node": 345.6576,
        "meta_arg_of_pericenter": 193.9217,
        "meta_mean_anomaly": 166.172,
        "meta_ephemeris_type": 0,
        "meta_classification_type": "U",
        "meta_norad_cat_id": 66955,
        "meta_element_set_no": 999,
        "meta_rev_at_epoch": 71,
        "meta_bstar": 2.5654516e-05,
        "meta_mean_motion_dot": 3.9e-07,
        "meta_mean_motion_ddot": 0,
        "tle_line1": "1 66955U 25287C   25348.08909877  .00000039  00000+0  25655-4 0  9993",
        "tle_line2": "2 66955  86.4907 345.6576 0008081 193.9217 166.1720 13.68903211   717"
      },
      "geometry": {
        "type": "Point",
        "coordinates": [
          167.21339197391478,
          -36.60858312702406
        ]
      }
    },
    {
      "type": "Feature",
      "properties": {
        "norad_id": 66956,
        "name": "HULIANWANG DIGUI-117",
        "group": "last-30-days",
        "lat": -39.92489688786925,
        "lon": 167.54874279020922,
        "alt_km": 1005.3161545198454,
        "timestamp": "2025-12-16T23:36:34.926089+00:00",
        "meta_object_name": "HULIANWANG DIGUI-117",
        "meta_object_id": "2025-287D",
        "meta_epoch": "2025-12-15T14:57:52.945344",
        "meta_mean_motion": 13.69018331,
        "meta_eccentricity": 0.00076604,
        "meta_inclination": 86.4969,
        "meta_ra_of_asc_node": 345.1063,
        "meta_arg_of_pericenter": 183.6249,
        "meta_mean_anomaly": 176.4856,
        "meta_ephemeris_type": 0,
        "meta_classification_type": "U",
        "meta_norad_cat_id": 66956,
        "meta_element_set_no": 999,
        "meta_rev_at_epoch": 92,
        "meta_bstar": 2.3367147e-05,
        "meta_mean_motion_dot": 3.7e-07,
        "meta_mean_motion_ddot": 0,
        "tle_line1": "1 66956U 25287D   25349.62352946  .00000037  00000+0  23367-4 0  9990",
        "tle_line2": "2 66956  86.4969 345.1063 0007660 183.6249 176.4856 13.69018331   923"
      },
      "geometry": {
        "type": "Point",
        "coordinates": [
          167.54874279020922,
          -39.92489688786925
        ]
      }
    },
    {
      "type": "Feature",
      "properties": {
        "norad_id": 66957,
        "name": "HULIANWANG DIGUI-118",
        "group": "last-30-days",
        "lat": -43.30730688747787,
        "lon": 167.91743300284378,
        "alt_km": 1005.4873520710025,
        "timestamp": "2025-12-16T23:36:34.926100+00:00",
        "meta_object_name": "HULIANWANG DIGUI-118",
        "meta_object_id": "2025-287E",
        "meta_epoch": "2025-12-15T14:57:03.727584",
        "meta_mean_motion": 13.69138315,
        "meta_eccentricity": 0.00074512,
        "meta_inclination": 86.4948,
        "meta_ra_of_asc_node": 345.102,
        "meta_arg_of_pericenter": 182.0052,
        "meta_mean_anomaly": 178.1079,
        "meta_ephemeris_type": 0,
        "meta_classification_type": "U",
        "meta_norad_cat_id": 66957,
        "meta_element_set_no": 999,
        "meta_rev_at_epoch": 92,
        "meta_bstar": -0.00015494599,
        "meta_mean_motion_dot": -1.17e-06,
        "meta_mean_motion_ddot": 0,
        "tle_line1": "1 66957U 25287E   25349.62295981 -.00000117  00000+0 -15495-3 0  9999",
        "tle_line2": "2 66957  86.4948 345.1020 0007451 182.0052 178.1079 13.69138315   928"
      },
      "geometry": {
        "type": "Point",
        "coordinates": [
          167.91743300284378,
          -43.30730688747787
        ]
      }
    },
    {
      "type": "Feature",
      "properties": {
        "norad_id": 66958,
        "name": "CZ-6A R/B",
        "group": "last-30-days",
        "lat": -65.35854068231265,
        "lon": 172.14139259740222,
        "alt_km": 990.1894603522924,
        "timestamp": "2025-12-16T23:36:34.926111+00:00",
        "meta_object_name": "CZ-6A R/B",
        "meta_object_id": "2025-287F",
        "meta_epoch": "2025-12-16T06:57:00.448128",
        "meta_mean_motion": 13.94920547,
        "meta_eccentricity": 0.01073194,
        "meta_inclination": 86.5059,
        "meta_ra_of_asc_node": 344.751,
        "meta_arg_of_pericenter": 91.4835,
        "meta_mean_anomaly": 269.8636,
        "meta_ephemeris_type": 0,
        "meta_classification_type": "U",
        "meta_norad_cat_id": 66958,
        "meta_element_set_no": 999,
        "meta_rev_at_epoch": 103,
        "meta_bstar": 0.00013579286,
        "meta_mean_motion_dot": 2.1e-06,
        "meta_mean_motion_ddot": 0,
        "tle_line1": "1 66958U 25287F   25350.28958852  .00000210  00000+0  13579-3 0  9990",
        "tle_line2": "2 66958  86.5059 344.7510 0107319  91.4835 269.8636 13.94920547  1032"
      },
      "geometry": {
        "type": "Point",
        "coordinates": [
          172.14139259740222,
          -65.35854068231265
        ]
      }
    },
    {
      "type": "Feature",
      "properties": {
        "norad_id": 66988,
        "name": "YAOGAN-47",
        "group": "last-30-days",
        "lat": -31.11208615615306,
        "lon": -128.46490636821449,
        "alt_km": 502.78678667352324,
        "timestamp": "2025-12-16T23:36:34.926121+00:00",
        "meta_object_name": "YAOGAN-47",
        "meta_object_id": "2025-289A",
        "meta_epoch": "2025-12-15T02:32:19.481856",
        "meta_mean_motion": 15.23184629,
        "meta_eccentricity": 7.87e-05,
        "meta_inclination": 97.5271,
        "meta_ra_of_asc_node": 54.2297,
        "meta_arg_of_pericenter": 67.3408,
        "meta_mean_anomaly": 292.7912,
        "meta_ephemeris_type": 0,
        "meta_classification_type": "U",
        "meta_norad_cat_id": 66988,
        "meta_element_set_no": 999,
        "meta_rev_at_epoch": 90,
        "meta_bstar": 0.00011849353,
        "meta_mean_motion_dot": 2.729e-05,
        "meta_mean_motion_ddot": 0,
        "tle_line1": "1 66988U 25289A   25349.10578104  .00002729  00000+0  11849-3 0  9997",
        "tle_line2": "2 66988  97.5271  54.2297 0000787  67.3408 292.7912 15.23184629   901"
      },
      "geometry": {
        "type": "Point",
        "coordinates": [
          -128.46490636821449,
          -31.11208615615306
        ]
      }
    },
    {
      "type": "Feature",
      "properties": {
        "norad_id": 66989,
        "name": "CZ-4B R/B",
        "group": "last-30-days",
        "lat": -19.284363512573258,
        "lon": 59.28629910938091,
        "alt_km": 271.34268725895254,
        "timestamp": "2025-12-16T23:36:34.926133+00:00",
        "meta_object_name": "CZ-4B R/B",
        "meta_object_id": "2025-289B",
        "meta_epoch": "2025-12-16T03:46:52.637952",
        "meta_mean_motion": 15.68063439,
        "meta_eccentricity": 0.01463813,
        "meta_inclination": 97.5267,
        "meta_ra_of_asc_node": 55.748,
        "meta_arg_of_pericenter": 350.0433,
        "meta_mean_anomaly": 9.7933,
        "meta_ephemeris_type": 0,
        "meta_classification_type": "U",
        "meta_norad_cat_id": 66989,
        "meta_element_set_no": 999,
        "meta_rev_at_epoch": 110,
        "meta_bstar": 0.00054725169,
        "meta_mean_motion_dot": 0.00111401,
        "meta_mean_motion_ddot": 5.756696e-06,
        "tle_line1": "1 66989U 25289B   25350.15755368  .00111401  57567-5  54725-3 0  9998",
        "tle_line2": "2 66989  97.5267  55.7480 0146381 350.0433   9.7933 15.68063439  1104"
      },
      "geometry": {
        "type": "Point",
        "coordinates": [
          59.28629910938091,
          -19.284363512573258
        ]
      }
    }
  ]
}